NORAD_CAT_ID,OBJECT_NAME,OBJECT_TYPE,EPOCH,MEAN_MOTION,ECCENTRICITY,INCLINATION,RA_OF_ASC_NODE,ARG_OF_PERICENTER,MEAN_ANOMALY,BSTAR,MEAN_MOTION_DOT,MEAN_MOTION_DDOT,TLE_LINE0,TLE_LINE1,TLE_LINE2,SEMIMAJOR_AXIS,PERIOD,APOGEE,PERIGEE,DECAYED
52878.0,STARLINK-4171,PAYLOAD,2022-09-18 14:00:01,15.29316675,0.0001712,53.2175,307.5247,35.3758,359.9708,-0.040223,-0.01063251,0.0,0 STARLINK-4171,1 52878U 22062BA  22261.58335648 -.01063251  00000-0 -40223-1 0  9999,2 52878  53.2175 307.5247 0001712  35.3758 359.9708 15.29316675 15108,6855.991,94.16,479.03,476.682,0.0
52878.0,STARLINK-4171,PAYLOAD,2022-09-18 22:00:00,15.28557634,0.0001766,53.2176,305.9789,34.2712,36.751,-0.041235,-0.01064613,0.0,0 STARLINK-4171,1 52878U 22062BA  22261.91667824 -.01064613  00000-0 -41235-1 0  9997,2 52878  53.2176 305.9789 0001766  34.2712  36.7510 15.28557634  1308,6858.26,94.206,481.336,478.914,0.0
52878.0,STARLINK-4171,PAYLOAD,2022-09-19 14:00:01,15.27035896,0.0001788,53.2174,302.8981,41.1675,98.5926,-0.042969,-0.01059227,0.0,0 STARLINK-4171,1 52878U 22062BA  22262.58334491 -.01059227  00000-0 -42969-1 0  9992,2 52878  53.2174 302.8981 0001788  41.1675  98.5926 15.27035896  1302,6862.816,94.3,485.908,483.454,0.0
52878.0,STARLINK-4171,PAYLOAD,2022-09-19 22:00:00,15.2627818,0.0001813,53.2175,301.3578,40.2529,132.5077,-0.044106,-0.01062169,0.0,0 STARLINK-4171,1 52878U 22062BA  22262.91667824 -.01062169  00000-0 -44106-1 0  9992,2 52878  53.2175 301.3578 0001813  40.2529 132.5077 15.26278180  1306,6865.087,94.347,488.197,485.707,0.0
52878.0,STARLINK-4171,PAYLOAD,2022-09-20 06:00:00,15.25519473,0.0001863,53.2177,299.8218,41.3184,163.5288,-0.045189,-0.0106337999999999,0.0,0 STARLINK-4171,1 52878U 22062BA  22263.25001157 -.01063380  00000-0 -45189-1 0  9999,2 52878  53.2177 299.8218 0001863  41.3184 163.5288 15.25519473 15365,6867.363,94.394,490.507,487.949,0.0
52878.0,STARLINK-4171,PAYLOAD,2022-09-20 14:00:01,15.24758218,0.0001689,53.2173,298.2878,46.0461,189.9758,-0.046073,-0.01059811,0.0,0 STARLINK-4171,1 52878U 22062BA  22263.58334491 -.01059811  00000-0 -46073-1 0  9992,2 52878  53.2173 298.2878 0001689  46.0461 189.9758 15.24758218  1306,6869.649,94.441,492.674,490.353,0.0
52878.0,STARLINK-4171,PAYLOAD,2022-09-20 22:00:01,15.23999207,0.0001612,53.2175,296.7526,45.3154,221.0332,-0.0471959999999999,-0.01061017,0.0,0 STARLINK-4171,1 52878U 22062BA  22263.91668981 -.01061017  00000-0 -47196-1 0  9991,2 52878  53.2175 296.7526 0001612  45.3154 221.0332 15.23999207  1308,6871.929,94.488,494.902,492.687,0.0
52878.0,STARLINK-4171,PAYLOAD,2022-09-21 08:00:01,15.23050614,0.0001719,53.2173,294.8402,36.6546,356.1737,-0.048649,-0.01062926,0.0,0 STARLINK-4171,1 52878U 22062BA  22264.33334491 -.01062926  00000-0 -48649-1 0  9998,2 52878  53.2173 294.8402 0001719  36.6546 356.1737 15.23050614 15522,6874.781999999997,94.547,497.829,495.466,0.0
52878.0,STARLINK-4171,PAYLOAD,2022-09-21 22:00:00,15.21720118,0.0001710999999999,53.2174,292.1637,34.5031,317.0926,-0.050473,-0.01060255,0.0,0 STARLINK-4171,1 52878U 22062BA  22264.91667824 -.01060255  00000-0 -50473-1 0  9992,2 52878  53.2174 292.1637 0001711  34.5031 317.0926 15.21720118  1300,6878.7890000000025,94.63,501.831,499.477,0.0
52878.0,STARLINK-4171,PAYLOAD,2022-09-22 06:00:00,15.20980137,0.0001661,53.2166,290.6395,41.7573,336.4391,-0.053011,-0.01101004,0.0,0 STARLINK-4171,1 52878U 22062BA  22265.25001157 -.01101004  00000-0 -53011-1 0  9990,2 52878  53.2166 290.6395 0001661  41.7573 336.4391 15.20980137 15663,6881.02,94.676,504.028,501.742,0.0
52878.0,STARLINK-4171,PAYLOAD,2022-09-22 14:00:01,15.20206384,0.0001865999999999,53.2161,289.1166,36.3136,7.5873,-0.053114,-0.01066507,0.0,0 STARLINK-4171,1 52878U 22062BA  22265.58334491 -.01066507  00000-0 -53114-1 0  9998,2 52878  53.2161 289.1166 0001866  36.3136   7.5873 15.20206384  1301,6883.355,94.724,506.504,503.935,0.0
52878.0,STARLINK-4171,PAYLOAD,2022-09-22 22:00:00,15.19440756,0.0001824,53.2165,287.5921,35.8556,32.8361,-0.053921,-0.01059341,0.0,0 STARLINK-4171,1 52878U 22062BA  22265.91667824 -.01059341  00000-0 -53921-1 0  9998,2 52878  53.2165 287.5921 0001824  35.8556  32.8361 15.19440756  1304,6885.667,94.772,508.788,506.276,0.0
52878.0,STARLINK-4171,PAYLOAD,2022-09-23 14:00:01,15.17980703,0.000192,53.2158,284.5540000000001,29.0102,86.4841,-0.060724,-0.01151288,0.0,0 STARLINK-4171,1 52878U 22062BA  22266.58334491 -.01151288  00000-0 -60724-1 0  9995,2 52878  53.2158 284.5540 0001920  29.0102  86.4841 15.17980703  1306,6890.081,94.863,513.269,510.62300000000016,0.0
52878.0,STARLINK-4171,PAYLOAD,2022-09-23 22:00:00,15.17177658,0.0001983,53.2162,283.035,38.5893,98.9767,-0.0587769999999999,-0.01093391,0.0,0 STARLINK-4171,1 52878U 22062BA  22266.91667824 -.01093391  00000-0 -58777-1 0  9996,2 52878  53.2162 283.0350 0001983  38.5893  98.9767 15.17177658  1307,6892.512,94.913,515.744,513.011,0.0
52878.0,STARLINK-4171,PAYLOAD,2022-09-24 06:00:00,15.16455959,0.0001855999999999,53.2164,281.5204,47.381,111.2993,-0.062927,-0.01142448,0.0,0 STARLINK-4171,1 52878U 22062BA  22267.25001157 -.01142448  00000-0 -62927-1 0  9995,2 52878  53.2164 281.5204 0001856  47.3810 111.2993 15.16455959 15976,6894.699000000001,94.958,517.844,515.284,0.0
52878.0,STARLINK-4171,PAYLOAD,2022-09-24 14:00:01,15.15659507,0.0001915,53.2157,280.0073,37.7714,141.2158,-0.061535,-0.01095694,0.0,0 STARLINK-4171,1 52878U 22062BA  22267.58335648 -.01095694  00000-0 -61535-1 0  9990,2 52878  53.2157 280.0073 0001915  37.7714 141.2158 15.15659507  1300,6897.114000000001,95.008,520.3,517.658,0.0
52878.0,STARLINK-4171,PAYLOAD,2022-09-24 22:00:00,15.14886063,0.0001855,53.2173,278.4924,41.8041,156.4383,-0.061687,-0.01075965,0.0,0 STARLINK-4171,1 52878U 22062BA  22267.91667824 -.01075965  00000-0 -61687-1 0  9998,2 52878  53.2173 278.4924 0001855  41.8041 156.4383 15.14886063  1302,6899.4609999999975,95.057,522.606,520.047,0.0
52878.0,STARLINK-4171,PAYLOAD,2022-09-25 14:00:01,15.13367983,0.0001911,53.2172,275.4754,38.9571,195.1661,-0.06445,-0.01076774,0.0,0 STARLINK-4171,1 52878U 22062BA  22268.58334491 -.01076774  00000-0 -64450-1 0  9993,2 52878  53.2172 275.4754 0001911  38.9571 195.1661 15.13367983  1300,6904.075,95.152,527.259,524.62,0.0
52878.0,STARLINK-4171,PAYLOAD,2022-09-25 22:00:01,15.12606637,0.0001598,53.2172,273.9671,52.3676,198.3926,-0.065698,-0.01074466,0.0,0 STARLINK-4171,1 52878U 22062BA  22268.91668981 -.01074466  00000-0 -65698-1 0  9995,2 52878  53.2172 273.9671 0001598  52.3676 198.3926 15.12606637 16225,6906.391,95.2,529.36,527.153,0.0
52878.0,STARLINK-4171,PAYLOAD,2022-09-26 00:00:00,15.12415487,0.0001504,53.2175,273.5908,48.7236,295.974,-0.065839,-0.01071242,0.0,0 STARLINK-4171,1 52878U 22062BA  22269.00001157 -.01071242  00000-0 -65839-1 0  9998,2 52878  53.2175 273.5908 0001504  48.7236 295.9740 15.12415487  1307,6906.973000000001,95.212,529.877,527.799,0.0
52878.0,STARLINK-4171,PAYLOAD,2022-09-26 14:00:01,15.1110258,0.0001784,53.2155,270.962,38.9659,242.1274,-0.069834,-0.0109354,0.0,0 STARLINK-4171,1 52878U 22062BA  22269.58334491 -.01093540  00000-0 -69834-1 0  9995,2 52878  53.2155 270.9620 0001784  38.9659 242.1274 15.11102580  1309,6910.973000000001,95.295,534.071,531.605,0.0
52878.0,STARLINK-4171,PAYLOAD,2022-09-26 22:00:00,15.10328578,0.0001688,53.2172,269.4578,39.712,255.2256,-0.07011,-0.01075853,0.0,0 STARLINK-4171,1 52878U 22062BA  22269.91667824 -.01075853  00000-0 -70110-1 0  9997,2 52878  53.2172 269.4578 0001688  39.7120 255.2256 15.10328578 16372,6913.334,95.343,536.366,534.0319999999998,0.0
52878.0,STARLINK-4171,PAYLOAD,2022-09-27 00:00:00,15.10138167,0.0001735,53.2174,269.083,35.5527,352.7007,-0.07044,-0.01075276,0.0,0 STARLINK-4171,1 52878U 22062BA  22270.00001157 -.01075276  00000-0 -70440-1 0  9995,2 52878  53.2174 269.0830 0001735  35.5527 352.7007 15.10138167  1306,6913.915,95.356,536.98,534.581,0.0
52878.0,STARLINK-4171,PAYLOAD,2022-09-27 06:00:00,15.09467095,0.0001371,53.216,267.9613,50.6173,257.2476,-0.0456149999999999,-0.00689551,0.0,0 STARLINK-4171,1 52878U 22062BA  22270.25001157 -.00689551  00000-0 -45615-1 0  9994,2 52878  53.2160 267.9613 0001371  50.6173 257.2476 15.09467095 16429,6915.964,95.398,538.7769999999998,536.881,0.0
52878.0,STARLINK-4171,PAYLOAD,2022-09-27 14:00:01,15.08979696,0.0001855999999999,53.2106,266.4685,39.8483,280.0133,-0.011771,-0.00183594,0.0,0 STARLINK-4171,1 52878U 22062BA  22270.58334491 -.00183594  00000-0 -11771-1 0  9992,2 52878  53.2106 266.4685 0001856  39.8483 280.0133 15.08979696 16476,6917.453,95.429,540.602,538.035,0.0
52878.0,STARLINK-4171,PAYLOAD,2022-09-27 22:00:01,15.08835263,0.0001713,53.2132,264.9678,43.6124,288.0047,-0.00146,-0.00023446,0.0,0 STARLINK-4171,1 52878U 22062BA  22270.91668981 -.00023446  00000-0 -14600-2 0  9997,2 52878  53.2132 264.9678 0001713  43.6124 288.0047 15.08835263 16526,6917.895,95.438,540.945,538.575,0.0
52878.0,STARLINK-4171,PAYLOAD,2022-09-28 06:00:00,15.08854499,0.0001954,53.2122,263.4769,40.9882,302.175,-0.00052554,-8.646e-05,0.0,0 STARLINK-4171,1 52878U 22062BA  22271.25001157 -.00008646  00000-0 -52554-3 0  9997,2 52878  53.2122 263.4769 0001954  40.9882 302.1750 15.08854499 16574,6917.8359999999975,95.437,541.053,538.349,0.0
52878.0,STARLINK-4171,PAYLOAD,2022-09-28 14:00:01,15.08878518,0.0001896,53.2131,261.98,36.9044,317.8642,-0.0069801999999999,-0.00109807,0.0,0 STARLINK-4171,1 52878U 22062BA  22271.58334491 -.00109807  00000-0 -69802-2 0  9997,2 52878  53.2131 261.9800 0001896  36.9044 317.8642 15.08878518  1309,6917.763000000001,95.435,540.939,538.316,0.0
52878.0,STARLINK-4171,PAYLOAD,2022-09-28 22:00:00,15.08816852,0.0001781999999999,53.2131,260.4819,43.5729,322.7706,0.0028239999999999,0.00044914,0.0,0 STARLINK-4171,1 52878U 22062BA  22271.91667824  .00044914  00000-0  28240-2 0  9999,2 52878  53.2131 260.4819 0001782  43.5729 322.7706 15.08816852  1300,6917.951,95.439,541.049,538.5830000000002,0.0
